ONEWEB-0098             
1 45442U 20020U   25356.11020829 -.00000181  00000+0 -54597-3 0  9991
2 45442  87.8855  56.3229 0001730  99.8228 260.3095 13.11413545279436
ONEWEB-0055             
1 45443U 20020V   25356.24585729  .00000564  00000+0  15547-2 0  9995
2 45443  87.8852  56.2963 0001730  99.2566 260.8758 13.11414834279429
ONEWEB-0093             
1 45444U 20020W   25356.22140737  .00000102  00000+0  25310-3 0  9998
2 45444  87.8856  56.2886 0002230 104.4118 255.7258 13.11419636279485
ONEWEB-0029             
1 45445U 20020X   25356.16107651  .00000510  00000+0  14038-2 0  9997
2 45445  87.8858  56.3132 0001851  99.0021 261.1317 13.11418063279450
ONEWEB-0068             
1 45446U 20020Y   25356.22112520  .00000064  00000+0  14456-3 0  9995
2 45446  87.8856  56.2903 0001955  99.9855 260.1493 13.11420333279405
ONEWEB-0046             
1 45447U 20020Z   25355.90760831 -.00000193  00000+0 -58137-3 0  9993
2 45447  87.8858  56.3607 0001931 107.8608 252.2731 13.11417719279376
ONEWEB-0063             
1 45448U 20020AA  25356.24161108  .00000633  00000+0  17500-2 0  9999
2 45448  87.8854  56.2917 0001793 110.8025 249.3295 13.11420346279506
ONEWEB-0019             
1 45449U 20020AB  25356.20705043 -.00000343  00000+0 -99447-3 0  9999
2 45449  87.8841  56.3032 0001708  98.0817 262.0506 13.11992651279346
